NORAD_CAT_ID,OBJECT_NAME,OBJECT_TYPE,EPOCH,MEAN_MOTION,ECCENTRICITY,INCLINATION,RA_OF_ASC_NODE,ARG_OF_PERICENTER,MEAN_ANOMALY,BSTAR,MEAN_MOTION_DOT,MEAN_MOTION_DDOT,TLE_LINE0,TLE_LINE1,TLE_LINE2,SEMIMAJOR_AXIS,PERIOD,APOGEE,PERIGEE,DECAYED
55397.0,STARLINK-5224,PAYLOAD,2024-07-13 20:09:37,14.983305,0.0002883,70.0002,127.1292,269.688,90.3949,2.5009e-05,2.05e-06,0.0,0 STARLINK-5224,1 55397U 23014G   24195.84002123  .00000205  00000-0  25009-4 0  9997,2 55397  70.0002 127.1292 0002883 269.6880  90.3949 14.98330500 81156,6950.191,96.107,574.06,570.053,0.0
55397.0,STARLINK-5224,PAYLOAD,2024-07-13 21:45:45,14.98330737,0.0002885,70.0003,126.9609,269.6568,90.426,2.5931e-05,2.16e-06,0.0,0 STARLINK-5224,1 55397U 23014G   24195.90678102  .00000216  00000-0  25931-4 0  9996,2 55397  70.0003 126.9609 0002885 269.6568  90.4260 14.98330737 82106,6950.191,96.107,574.061,570.05,0.0
55397.0,STARLINK-5224,PAYLOAD,2024-07-14 12:10:58,14.98334963,0.0002758,70.0008,125.4475,265.7492,94.3352,-7.426e-05,-9.79e-06,0.0,0 STARLINK-5224,1 55397U 23014G   24196.50761930 -.00000979  00000-0 -74260-4 0  9992,2 55397  70.0008 125.4475 0002758 265.7492  94.3352 14.98334963 82197,6950.178,96.107,573.959,570.126,0.0
55397.0,STARLINK-5224,PAYLOAD,2024-07-14 20:11:38,14.9833036,0.0002857,70.0005,124.6055,268.7185,91.3647,5.4348e-05,5.56e-06,0.0,0 STARLINK-5224,1 55397U 23014G   24196.84141898  .00000556  00000-0  54348-4 0  9998,2 55397  70.0005 124.6055 0002857 268.7185  91.3647 14.98330360 81304,6950.192,96.107,574.042,570.071,0.0
55397.0,STARLINK-5224,PAYLOAD,2024-07-14 21:47:46,14.9832842,0.0002991,70.0007,124.4374,268.0081,92.0735,0.00010517,1.162e-05,0.0,0 STARLINK-5224,1 55397U 23014G   24196.90817851  .00001162  00000-0  10517-3 0  9997,2 55397  70.0007 124.4374 0002991 268.0081  92.0735 14.98328420 82250,6950.198,96.107,574.142,569.984,0.0
55397.0,STARLINK-5224,PAYLOAD,2024-07-15 12:12:59,14.98333969,0.0002778,70.0005,122.9224,272.5895,87.4946,-2.0319e-05,-3.35e-06,0.0,0 STARLINK-5224,1 55397U 23014G   24197.50901773 -.00000335  00000-0 -20319-4 0  9996,2 55397  70.0005 122.9224 0002778 272.5895  87.4946 14.98333969 82347,6950.181,96.107,573.976,570.115,0.0
55397.0,STARLINK-5224,PAYLOAD,2024-07-15 20:13:39,14.98328876,0.0002692,70.0008,122.0819,266.6686,93.4165,-2.7823e-05,-4.25e-06,0.0,0 STARLINK-5224,1 55397U 23014G   24197.84282111 -.00000425  00000-0 -27823-4 0  9998,2 55397  70.0008 122.0819 0002692 266.6686  93.4165 14.98328876 81450,6950.196,96.107,573.932,570.19,0.0
55397.0,STARLINK-5224,PAYLOAD,2024-07-15 21:49:47,14.98326971,0.000273,70.0007,121.913,267.4895,92.5951,-1.494e-05,-2.71e-06,0.0,0 STARLINK-5224,1 55397U 23014G   24197.90958181 -.00000271  00000-0 -14940-4 0  9997,2 55397  70.0007 121.9130 0002730 267.4895  92.5951 14.98326971 82400,6950.202,96.107,573.965,570.17,0.0
55397.0,STARLINK-5224,PAYLOAD,2024-07-16 04:14:19,14.98332184,0.000273,70.0007,121.2398,268.4799,91.6048,7.9925e-06,2e-08,0.0,0 STARLINK-5224,1 55397U 23014G   24198.17661818  .00000002  00000-0  79925-5 0  9990,2 55397  70.0007 121.2398 0002730 268.4799  91.6048 14.98332184 82447,6950.186,96.107,573.949,570.154,0.0
55397.0,STARLINK-5224,PAYLOAD,2024-07-16 21:51:48,14.98336044,0.0002736,70.0009,119.3884,270.6421,89.4425,6.9998e-05,7.42e-06,0.0,0 STARLINK-5224,1 55397U 23014G   24198.91097240  .00000742  00000-0  69998-4 0  9993,2 55397  70.0009 119.3884 0002736 270.6421  89.4425 14.98336044 82555,6950.174,96.107,573.941,570.138,0.0
55397.0,STARLINK-5224,PAYLOAD,2024-07-17 04:16:19,14.98342165,0.0002791,70.0006,118.7142,268.1747,91.9092,0.00012047,1.345e-05,0.0,0 STARLINK-5224,1 55397U 23014G   24199.17800614  .00001345  00000-0  12047-3 0  9991,2 55397  70.0006 118.7142 0002791 268.1747  91.9092 14.98342165 81655,6950.155,96.106,573.96,570.08,0.0
55397.0,STARLINK-5224,PAYLOAD,2024-07-17 12:17:00,14.98333956,0.0002516,70.0015,117.8744,280.0508,80.0367,7.4411e-05,7.95e-06,0.0,0 STARLINK-5224,1 55397U 23014G   24199.51181375  .00000795  00000-0  74411-4 0  9997,2 55397  70.0015 117.8744 0002516 280.0508  80.0367 14.98333956 81704,6950.181,96.107,573.794,570.297,0.0
55397.0,STARLINK-5224,PAYLOAD,2024-07-17 20:17:41,14.9832202,0.0002821,69.9992,117.027,272.0419,88.0417,6.7482e-05,7.12e-06,0.0,0 STARLINK-5224,1 55397U 23014G   24199.84562048  .00000712  00000-0  67482-4 0  9992,2 55397  69.9992 117.0270 0002821 272.0419  88.0417 14.98322020 81751,6950.218,96.108,574.043,570.122,0.0
55397.0,STARLINK-5224,PAYLOAD,2024-07-17 21:53:49,14.98322058,0.0002827,69.9995,116.8604,271.2582,88.8253,3.5953e-05,3.36e-06,0.0,0 STARLINK-5224,1 55397U 23014G   24199.91238155  .00000336  00000-0  35953-4 0  9999,2 55397  69.9995 116.8604 0002827 271.2582  88.8253 14.98322058 82703,6950.217,96.108,574.047,570.118,0.0
55397.0,STARLINK-5224,PAYLOAD,2024-07-18 12:19:02,14.98328151,0.0002868,70.0006,115.348,272.3022,87.7809,-3.8655e-05,-5.54e-06,0.0,0 STARLINK-5224,1 55397U 23014G   24200.51322166 -.00000554  00000-0 -38655-4 0  9990,2 55397  70.0006 115.3480 0002868 272.3022  87.7809 14.98328151 82795,6950.199,96.107,574.057,570.07,0.0
55397.0,STARLINK-5224,PAYLOAD,2024-07-18 20:19:42,14.98326206,0.0002869,70.0011,114.5066,272.3733,87.7098,-1.462e-05,-2.67e-06,0.0,0 STARLINK-5224,1 55397U 23014G   24200.84702344 -.00000267  00000-0 -14620-4 0  9993,2 55397  70.0011 114.5066 0002869 272.3733  87.7098 14.98326206 81903,6950.205,96.107,574.064,570.076,0.0
55397.0,STARLINK-5224,PAYLOAD,2024-07-18 21:55:50,14.98326362,0.000287,70.0011,114.3384,272.5098,87.5732,-1.1068e-05,-2.25e-06,0.0,0 STARLINK-5224,1 55397U 23014G   24200.91378355 -.00000225  00000-0 -11068-4 0  9999,2 55397  70.0011 114.3384 0002870 272.5098  87.5732 14.98326362 82853,6950.204,96.107,574.064,570.074,0.0
55397.0,STARLINK-5224,PAYLOAD,2024-07-19 04:20:22,14.98333099,0.0002509,70.0011,113.6647,261.4594,98.6281,6.8407e-05,7.23e-06,0.0,0 STARLINK-5224,1 55397U 23014G   24201.18081761  .00000723  00000-0  68407-4 0  9991,2 55397  70.0011 113.6647 0002509 261.4594  98.6281 14.98333099 81951,6950.183,96.107,573.792,570.305,0.0
55397.0,STARLINK-5224,PAYLOAD,2024-07-19 20:21:43,14.98313099,0.0002748,70.0009,111.9814,271.2694,88.815,0.00037125,4.337e-05,0.0,0 STARLINK-5224,1 55397U 23014G   24201.84842414  .00004337  00000-0  37125-3 0  9991,2 55397  70.0009 111.9814 0002748 271.2694  88.8150 14.98313099 82056,6950.245,96.108,574.02,570.2,0.0
55397.0,STARLINK-5224,PAYLOAD,2024-07-19 21:57:51,14.98316283,0.000273,70.0008,111.8131,271.7103,88.3743,0.00031289,3.641e-05,0.0,0 STARLINK-5224,1 55397U 23014G   24201.91518406  .00003641  00000-0  31289-3 0  9992,2 55397  70.0008 111.8131 0002730 271.7103  88.3743 14.98316283 83004,6950.235,96.108,573.998,570.203,0.0
55397.0,STARLINK-5224,PAYLOAD,2024-07-20 04:22:23,14.983331,0.0002619,70.0012,111.1422,255.1671,104.9198,0.00019914,2.284e-05,0.0,0 STARLINK-5224,1 55397U 23014G   24202.18221544  .00002284  00000-0  19914-3 0  9999,2 55397  70.0012 111.1422 0002619 255.1671 104.9198 14.98333100 82103,6950.183,96.107,573.869,570.228,0.0
55397.0,STARLINK-5224,PAYLOAD,2024-07-20 10:46:55,14.98334239,0.0002608,70.0013,110.4686,257.9047,102.182,0.00019019,2.177e-05,0.0,0 STARLINK-5224,1 55397U 23014G   24202.44925497  .00002177  00000-0  19019-3 0  9993,2 55397  70.0013 110.4686 0002608 257.9047 102.1820 14.98334239 83087,6950.18,96.107,573.857,570.232,0.0
55397.0,STARLINK-5224,PAYLOAD,2024-07-20 21:59:52,14.98320263,0.0002468,70.0011,109.2905,262.1277,97.9602,0.00055551,6.54e-05,0.0,0 STARLINK-5224,1 55397U 23014G   24202.91657905  .00006540  00000-0  55551-3 0  9990,2 55397  70.0011 109.2905 0002468 262.1277  97.9602 14.98320263 83151,6950.223,96.108,573.803,570.373,0.0
55397.0,STARLINK-5224,PAYLOAD,2024-07-21 04:24:23,14.98357722,0.0002517,70.001,108.6172,257.2324,102.8554,-1.6531e-05,-2.9e-06,0.0,0 STARLINK-5224,1 55397U 23014G   24203.18360058 -.00000290  00000-0 -16531-4 0  9994,2 55397  70.0010 108.6172 0002517 257.2324 102.8554 14.98357722 82254,6950.107,96.105,573.722,570.223,0.0
55397.0,STARLINK-5224,PAYLOAD,2024-07-21 20:25:45,14.98333793,0.0002816,69.998,106.9282,261.8137,98.2702,2.3543e-05,1.88e-06,0.0,0 STARLINK-5224,1 55397U 23014G   24203.85121616  .00000188  00000-0  23543-4 0  9998,2 55397  69.9980 106.9282 0002816 261.8137  98.2702 14.98333793 82351,6950.181,96.107,574.003,570.089,0.0
55397.0,STARLINK-5224,PAYLOAD,2024-07-21 22:01:53,14.98327492,0.0002591,70.0003,106.7618,249.4662,110.6219,6.2919e-05,6.58e-06,0.0,0 STARLINK-5224,1 55397U 23014G   24203.91797891  .00000658  00000-0  62919-4 0  9991,2 55397  70.0003 106.7618 0002591 249.4662 110.6219 14.98327492 83303,6950.201,96.107,573.866,570.265,0.0
55397.0,STARLINK-5224,PAYLOAD,2024-07-22 02:50:17,14.98323691,0.0003124,70.0,106.2592,266.0317,94.0485,0.0001635,1.858e-05,0.0,0 STARLINK-5224,1 55397U 23014G   24204.11826111  .00001858  00000-0  16350-3 0  9992,2 55397  70.0000 106.2592 0003124 266.0317  94.0485 14.98323691 82396,6950.212,96.107,574.249,569.906,0.0
55397.0,STARLINK-5224,PAYLOAD,2024-07-22 17:15:29,14.98336019,0.0002639,70.0005,104.7448,258.6501,101.4362,5.4625e-05,5.59e-06,0.0,0 STARLINK-5224,1 55397U 23014G   24204.71909402  .00000559  00000-0  54625-4 0  9998,2 55397  70.0005 104.7448 0002639 258.6501 101.4362 14.98336019 82481,6950.174,96.107,573.873,570.205,0.0
55397.0,STARLINK-5224,PAYLOAD,2024-07-22 22:03:53,14.9833753,0.0002652,70.0004,104.2401,262.5941,97.4917,6.7052e-05,7.07e-06,0.0,0 STARLINK-5224,1 55397U 23014G   24204.91937286  .00000707  00000-0  67052-4 0  9994,2 55397  70.0004 104.2401 0002652 262.5941  97.4917 14.98337530 83458,6950.17,96.107,573.878,570.191,0.0
55397.0,STARLINK-5224,PAYLOAD,2024-07-23 10:52:58,14.98331135,0.0002805,70.0011,102.891,274.4386,85.6453,-3.9386e-05,-5.63e-06,0.0,0 STARLINK-5224,1 55397U 23014G   24205.45345421 -.00000563  00000-0 -39386-4 0  9999,2 55397  70.0011 102.8910 0002805 274.4386  85.6453 14.98331135 83538,6950.189,96.107,574.004,570.105,0.0
